SL-4 R/B                
1 39679U 14021B   26058.88866121  .00016537  00000+0  36767-3 0  9996
2 39679  51.6075  25.0784 0098335  67.2260 293.9078 15.38801500654764
ALOS-2                  
1 39766U 14029A   26058.91211756  .00000804  00000+0  11450-3 0  9995
2 39766  97.9198 157.6511 0001509  97.5507 262.5876 14.79456484635428
YAOGAN-29               
1 41038U 15069A   26058.94350559 -.00000105  00000+0 -62697-5 0  9990
2 41038  98.0164  87.3467 0002431  52.2432 307.9001 14.82980182554433
ASTRO-H (HITOMI)        
1 41337U 16012A   26058.71842119  .00003559  00000+0  20833-3 0  9992
2 41337  31.0000  60.8894 0010004 232.2382 127.7350 15.09919242550722
HXMT (HUIYAN)           
1 42758U 17034A   26058.90377163  .00005824  00000+0  29482-3 0  9994
2 42758  43.0148  71.0724 0031709 175.2174 184.8982 15.17316129481050
CZ-2C R/B               
1 43521U 18054D   26059.06954890  .05228749  14636-5  69436-3 0  9999
2 43521  35.1197   4.7096 0007640 233.1226 126.8825 16.34281892427363
SAOCOM 1A               
1 43641U 18076A   26058.97149465  .00000593  00000+0  80983-4 0  9994
2 43641  97.8891 247.2811 0001344  79.3226 280.8139 14.82157402399925
H-2A R/B                
1 43682U 18084L   26058.53890966  .00018925  00000+0  45792-3 0  9995
2 43682  98.8749 273.7609 0026114  59.5519 300.8297 15.40844580404211
SAOCOM 1B               
1 46265U 20059A   26058.93521833  .00000841  00000+0  11221-3 0  9996
2 46265  97.8887 246.3430 0001465  84.5765 275.5615 14.82160627297304
CSS (TIANHE)            
1 48274U 21035A   26058.92327046  .00023822  00000+0  28713-3 0  9990
2 48274  41.4656 267.5676 0006196 211.0082 149.0391 15.60204146276087
CZ-2C R/B               
1 52794U 22058K   26058.86601864  .00029484  00000+0  44453-3 0  9993
2 52794  50.1896   8.7913 0042158 158.9235 201.3484 15.53453240208609
