CCSDS_OMM_VERS = 2.0
CREATION_DATE  = 
ORIGINATOR     = 

OBJECT_NAME    = SL-4 R/B
OBJECT_ID      = 2014-021B
CENTER_NAME    = EARTH
REF_FRAME      = TEME
TIME_SYSTEM    = UTC
MEAN_ELEMENT_THEORY = SGP/SGP4

EPOCH          = 2026-02-27T21:19:40.328544
MEAN_MOTION    = 15.38801500
ECCENTRICITY   = .00983359
INCLINATION    = 51.6075
RA_OF_ASC_NODE = 25.0784
ARG_OF_PERICENTER = 67.2260
MEAN_ANOMALY   = 293.9078

EPHEMERIS_TYPE = 0
CLASSIFICATION_TYPE = U
NORAD_CAT_ID   = 39679
ELEMENT_SET_NO = 999
REV_AT_EPOCH   = 65476
BSTAR          = .36767232E-3
MEAN_MOTION_DOT = .16537E-3
MEAN_MOTION_DDOT = 0

CCSDS_OMM_VERS = 2.0
CREATION_DATE  = 
ORIGINATOR     = 

OBJECT_NAME    = ALOS-2
OBJECT_ID      = 2014-029A
CENTER_NAME    = EARTH
REF_FRAME      = TEME
TIME_SYSTEM    = UTC
MEAN_ELEMENT_THEORY = SGP/SGP4

EPOCH          = 2026-02-27T21:53:26.957184
MEAN_MOTION    = 14.79456484
ECCENTRICITY   = .00015095
INCLINATION    = 97.9198
RA_OF_ASC_NODE = 157.6511
ARG_OF_PERICENTER = 97.5507
MEAN_ANOMALY   = 262.5876

EPHEMERIS_TYPE = 0
CLASSIFICATION_TYPE = U
NORAD_CAT_ID   = 39766
ELEMENT_SET_NO = 999
REV_AT_EPOCH   = 63542
BSTAR          = .11450153E-3
MEAN_MOTION_DOT = .804E-5
MEAN_MOTION_DDOT = 0

CCSDS_OMM_VERS = 2.0
CREATION_DATE  = 
ORIGINATOR     = 

OBJECT_NAME    = YAOGAN-29
OBJECT_ID      = 2015-069A
CENTER_NAME    = EARTH
REF_FRAME      = TEME
TIME_SYSTEM    = UTC
MEAN_ELEMENT_THEORY = SGP/SGP4

EPOCH          = 2026-02-27T22:38:38.882976
MEAN_MOTION    = 14.82980182
ECCENTRICITY   = .00024311
INCLINATION    = 98.0164
RA_OF_ASC_NODE = 87.3467
ARG_OF_PERICENTER = 52.2432
MEAN_ANOMALY   = 307.9001

EPHEMERIS_TYPE = 0
CLASSIFICATION_TYPE = U
NORAD_CAT_ID   = 41038
ELEMENT_SET_NO = 999
REV_AT_EPOCH   = 55443
BSTAR          = -.626966E-5
MEAN_MOTION_DOT = -.105E-5
MEAN_MOTION_DDOT = 0

CCSDS_OMM_VERS = 2.0
CREATION_DATE  = 
ORIGINATOR     = 

OBJECT_NAME    = ASTRO-H (HITOMI)
OBJECT_ID      = 2016-012A
CENTER_NAME    = EARTH
REF_FRAME      = TEME
TIME_SYSTEM    = UTC
MEAN_ELEMENT_THEORY = SGP/SGP4

EPOCH          = 2026-02-27T17:14:31.590816
MEAN_MOTION    = 15.09919242
ECCENTRICITY   = .00100049
INCLINATION    = 31.0000
RA_OF_ASC_NODE = 60.8894
ARG_OF_PERICENTER = 232.2382
MEAN_ANOMALY   = 127.7350

EPHEMERIS_TYPE = 0
CLASSIFICATION_TYPE = U
NORAD_CAT_ID   = 41337
ELEMENT_SET_NO = 999
REV_AT_EPOCH   = 55072
BSTAR          = .20832753E-3
MEAN_MOTION_DOT = .3559E-4
MEAN_MOTION_DDOT = 0

CCSDS_OMM_VERS = 2.0
CREATION_DATE  = 
ORIGINATOR     = 

OBJECT_NAME    = HXMT (HUIYAN)
OBJECT_ID      = 2017-034A
CENTER_NAME    = EARTH
REF_FRAME      = TEME
TIME_SYSTEM    = UTC
MEAN_ELEMENT_THEORY = SGP/SGP4

EPOCH          = 2026-02-27T21:41:25.868832
MEAN_MOTION    = 15.17316129
ECCENTRICITY   = .00317092
INCLINATION    = 43.0148
RA_OF_ASC_NODE = 71.0724
ARG_OF_PERICENTER = 175.2174
MEAN_ANOMALY   = 184.8982

EPHEMERIS_TYPE = 0
CLASSIFICATION_TYPE = U
NORAD_CAT_ID   = 42758
ELEMENT_SET_NO = 999
REV_AT_EPOCH   = 48105
BSTAR          = .29482237E-3
MEAN_MOTION_DOT = .5824E-4
MEAN_MOTION_DDOT = 0

CCSDS_OMM_VERS = 2.0
CREATION_DATE  = 
ORIGINATOR     = 

OBJECT_NAME    = CZ-2C R/B
OBJECT_ID      = 2018-054D
CENTER_NAME    = EARTH
REF_FRAME      = TEME
TIME_SYSTEM    = UTC
MEAN_ELEMENT_THEORY = SGP/SGP4

EPOCH          = 2026-02-28T01:40:09.024960
MEAN_MOTION    = 16.34281892
ECCENTRICITY   = .000764
INCLINATION    = 35.1197
RA_OF_ASC_NODE = 4.7096
ARG_OF_PERICENTER = 233.1226
MEAN_ANOMALY   = 126.8825

EPHEMERIS_TYPE = 0
CLASSIFICATION_TYPE = U
NORAD_CAT_ID   = 43521
ELEMENT_SET_NO = 999
REV_AT_EPOCH   = 42736
BSTAR          = .69436E-3
MEAN_MOTION_DOT = .5228749E-1
MEAN_MOTION_DDOT = .14636E-5

CCSDS_OMM_VERS = 2.0
CREATION_DATE  = 
ORIGINATOR     = 

OBJECT_NAME    = SAOCOM 1A
OBJECT_ID      = 2018-076A
CENTER_NAME    = EARTH
REF_FRAME      = TEME
TIME_SYSTEM    = UTC
MEAN_ELEMENT_THEORY = SGP/SGP4

EPOCH          = 2026-02-27T23:18:57.137760
MEAN_MOTION    = 14.82157402
ECCENTRICITY   = .00013443
INCLINATION    = 97.8891
RA_OF_ASC_NODE = 247.2811
ARG_OF_PERICENTER = 79.3226
MEAN_ANOMALY   = 280.8139

EPHEMERIS_TYPE = 0
CLASSIFICATION_TYPE = U
NORAD_CAT_ID   = 43641
ELEMENT_SET_NO = 999
REV_AT_EPOCH   = 39992
BSTAR          = .80983267E-4
MEAN_MOTION_DOT = .593E-5
MEAN_MOTION_DDOT = 0

CCSDS_OMM_VERS = 2.0
CREATION_DATE  = 
ORIGINATOR     = 

OBJECT_NAME    = H-2A R/B
OBJECT_ID      = 2018-084L
CENTER_NAME    = EARTH
REF_FRAME      = TEME
TIME_SYSTEM    = UTC
MEAN_ELEMENT_THEORY = SGP/SGP4

EPOCH          = 2026-02-27T12:56:01.794624
MEAN_MOTION    = 15.40844580
ECCENTRICITY   = .00261149
INCLINATION    = 98.8749
RA_OF_ASC_NODE = 273.7609
ARG_OF_PERICENTER = 59.5519
MEAN_ANOMALY   = 300.8297

EPHEMERIS_TYPE = 0
CLASSIFICATION_TYPE = U
NORAD_CAT_ID   = 43682
ELEMENT_SET_NO = 999
REV_AT_EPOCH   = 40421
BSTAR          = .45791786E-3
MEAN_MOTION_DOT = .18925E-3
MEAN_MOTION_DDOT = 0

CCSDS_OMM_VERS = 2.0
CREATION_DATE  = 
ORIGINATOR     = 

OBJECT_NAME    = SAOCOM 1B
OBJECT_ID      = 2020-059A
CENTER_NAME    = EARTH
REF_FRAME      = TEME
TIME_SYSTEM    = UTC
MEAN_ELEMENT_THEORY = SGP/SGP4

EPOCH          = 2026-02-27T22:26:42.863712
MEAN_MOTION    = 14.82160627
ECCENTRICITY   = .00014654
INCLINATION    = 97.8887
RA_OF_ASC_NODE = 246.3430
ARG_OF_PERICENTER = 84.5765
MEAN_ANOMALY   = 275.5615

EPHEMERIS_TYPE = 0
CLASSIFICATION_TYPE = U
NORAD_CAT_ID   = 46265
ELEMENT_SET_NO = 999
REV_AT_EPOCH   = 29730
BSTAR          = .11221344E-3
MEAN_MOTION_DOT = .841E-5
MEAN_MOTION_DDOT = 0

CCSDS_OMM_VERS = 2.0
CREATION_DATE  = 
ORIGINATOR     = 

OBJECT_NAME    = CSS (TIANHE)
OBJECT_ID      = 2021-035A
CENTER_NAME    = EARTH
REF_FRAME      = TEME
TIME_SYSTEM    = UTC
MEAN_ELEMENT_THEORY = SGP/SGP4

EPOCH          = 2026-02-27T22:09:30.567744
MEAN_MOTION    = 15.60204146
ECCENTRICITY   = .00061965
INCLINATION    = 41.4656
RA_OF_ASC_NODE = 267.5676
ARG_OF_PERICENTER = 211.0082
MEAN_ANOMALY   = 149.0391

EPHEMERIS_TYPE = 0
CLASSIFICATION_TYPE = U
NORAD_CAT_ID   = 48274
ELEMENT_SET_NO = 999
REV_AT_EPOCH   = 27608
BSTAR          = .28713198E-3
MEAN_MOTION_DOT = .23822E-3
MEAN_MOTION_DDOT = 0

CCSDS_OMM_VERS = 2.0
CREATION_DATE  = 
ORIGINATOR     = 

OBJECT_NAME    = CZ-2C R/B
OBJECT_ID      = 2022-058K
CENTER_NAME    = EARTH
REF_FRAME      = TEME
TIME_SYSTEM    = UTC
MEAN_ELEMENT_THEORY = SGP/SGP4

EPOCH          = 2026-02-27T20:47:04.010496
MEAN_MOTION    = 15.53453240
ECCENTRICITY   = .0042158
INCLINATION    = 50.1896
RA_OF_ASC_NODE = 8.7913
ARG_OF_PERICENTER = 158.9235
MEAN_ANOMALY   = 201.3484

EPHEMERIS_TYPE = 0
CLASSIFICATION_TYPE = U
NORAD_CAT_ID   = 52794
ELEMENT_SET_NO = 999
REV_AT_EPOCH   = 20860
BSTAR          = .44453492E-3
MEAN_MOTION_DOT = .29484E-3
MEAN_MOTION_DDOT = 0

